STARLINK-30309          
1 57632U 23122A   26068.41243341 -.00004488  00000+0 -15787-3 0  9993
2 57632  42.9987  94.1486 0001094 299.3962  60.6780 15.26712855142163
TEVEL2-7                
1 63238U 25052AE  26068.66113295  .00019244  00000+0  69668-3 0  9998
2 63238  97.4054 324.3041 0008105 124.6830 235.5175 15.28414096 54803
