[{"OBJECT_NAME":"STARLINK-30309","OBJECT_ID":"2023-122A","EPOCH":"2026-03-09T09:53:54.246624","MEAN_MOTION":15.26712855,"ECCENTRICITY":0.00010941,"INCLINATION":42.9987,"RA_OF_ASC_NODE":94.1486,"ARG_OF_PERICENTER":299.3962,"MEAN_ANOMALY":60.678,"EPHEMERIS_TYPE":0,"CLASSIFICATION_TYPE":"U","NORAD_CAT_ID":57632,"ELEMENT_SET_NO":999,"REV_AT_EPOCH":14216,"BSTAR":-0.00015787097,"MEAN_MOTION_DOT":-4.488e-5,"MEAN_MOTION_DDOT":0},{"OBJECT_NAME":"TEVEL2-7","OBJECT_ID":"2025-052AE","EPOCH":"2026-03-09T15:52:01.887744","MEAN_MOTION":15.28414096,"ECCENTRICITY":0.00081048,"INCLINATION":97.4054,"RA_OF_ASC_NODE":324.3041,"ARG_OF_PERICENTER":124.683,"MEAN_ANOMALY":235.5175,"EPHEMERIS_TYPE":0,"CLASSIFICATION_TYPE":"U","NORAD_CAT_ID":63238,"ELEMENT_SET_NO":999,"REV_AT_EPOCH":5480,"BSTAR":0.00069668191,"MEAN_MOTION_DOT":0.00019244,"MEAN_MOTION_DDOT":0}]
